{
    "links": {
        "self": "http://www.neowsapp.com/rest/v1/neo/3841709?api_key=iIulBulltgU6a56xZRHN4H3l9WmuAYTsLGpBGhQ2"
    },
    "id": "3841709",
    "neo_reference_id": "3841709",
    "name": "(2019 JN1)",
    "designation": "2019 JN1",
    "nasa_jpl_url": "http://ssd.jpl.nasa.gov/sbdb.cgi?sstr=3841709",
    "absolute_magnitude_h": 24.0,
    "estimated_diameter": {
        "kilometers": {
            "estimated_diameter_min": 0.0421264611,
            "estimated_diameter_max": 0.0941976306
        },
        "meters": {
            "estimated_diameter_min": 42.1264610556,
            "estimated_diameter_max": 94.1976305719
        },
        "miles": {
            "estimated_diameter_min": 0.0261761612,
            "estimated_diameter_max": 0.0585316759
        },
        "feet": {
            "estimated_diameter_min": 138.2101784897,
            "estimated_diameter_max": 309.0473542854
        }
    },
    "is_potentially_hazardous_asteroid": false,
    "close_approach_data": [
        {
            "close_approach_date": "2019-05-23",
            "close_approach_date_full": "2019-May-23 11:26",
            "epoch_date_close_approach": 1558610760000,
            "relative_velocity": {
                "kilometers_per_second": "6.5147052362",
                "kilometers_per_hour": "23452.938850213",
                "miles_per_hour": "14572.7441427893"
            },
            "miss_distance": {
                "astronomical": "0.1229898812",
                "lunar": "47.8430637868",
                "kilometers": "18399024.259073044",
                "miles": "11432623.5367902472"
            },
            "orbiting_body": "Earth"
        },
        {
            "close_approach_date": "2130-04-02",
            "close_approach_date_full": "2130-Apr-02 17:17",
            "epoch_date_close_approach": 5057054220000,
            "relative_velocity": {
                "kilometers_per_second": "16.2860046173",
                "kilometers_per_hour": "58629.6166222606",
                "miles_per_hour": "36430.1637284263"
            },
            "miss_distance": {
                "astronomical": "0.4447164017",
                "lunar": "172.9946802613",
                "kilometers": "66528626.448384379",
                "miles": "41338971.5614432702"
            },
            "orbiting_body": "Earth"
        },
        {
            "close_approach_date": "2141-05-30",
            "close_approach_date_full": "2141-May-30 05:59",
            "epoch_date_close_approach": 5409179940000,
            "relative_velocity": {
                "kilometers_per_second": "7.6659115272",
                "kilometers_per_hour": "27597.2814977863",
                "miles_per_hour": "17147.8774951106"
            },
            "miss_distance": {
                "astronomical": "0.1558961934",
                "lunar": "60.6436192326",
                "kilometers": "23321738.473748058",
                "miles": "14491456.3098288804"
            },
            "orbiting_body": "Earth"
        }
    ],
    "orbital_data": {
        "orbit_id": "11",
        "orbit_determination_date": "2019-06-24 05:26:32",
        "first_observation_date": "2019-05-02",
        "last_observation_date": "2019-06-24",
        "data_arc_in_days": 53,
        "observations_used": 56,
        "orbit_uncertainty": "7",
        "minimum_orbit_intersection": ".0894768",
        "jupiter_tisserand_invariant": "3.736",
        "epoch_osculation": "2459000.5",
        "eccentricity": ".4446080211903132",
        "semi_major_axis": "1.974616719962561",
        "inclination": "3.909264168520392",
        "ascending_node_longitude": "244.9882555782433",
        "orbital_period": "1013.497407131575",
        "perihelion_distance": "1.0966862874907",
        "perihelion_argument": "340.8718953128779",
        "aphelion_distance": "2.852547152434422",
        "perihelion_time": "2458615.793375958104",
        "mean_anomaly": "136.6499644503805",
        "mean_motion": ".3552056447967448",
        "equinox": "J2000",
        "orbit_class": {
            "orbit_class_type": "AMO",
            "orbit_class_description": "Near-Earth asteroid orbits similar to that of 1221 Amor",
            "orbit_class_range": "1.017 AU < q (perihelion) < 1.3 AU"
        }
    },
    "is_sentry_object": false
}